ONEWEB-0674             
1 55833U 23029AP  25322.48655384  .00000244  00000+0  62471-3 0  9999
2 55833  87.8983 331.7130 0001853 107.3180 252.8152 13.14502351131739
ONEWEB-0675             
1 55834U 23029AQ  25322.81563137 -.00000432  00000+0 -11121-2 0  9997
2 55834  87.9208 346.8510 0001907  81.3948 278.7401 13.19728783131179
ONEWEB-0720             
1 55835U 23029AR  25322.50446434  .00000053  00000+0  99505-4 0  9995
2 55835  87.9202 346.9100 0002248  95.3506 264.7883 13.19727048131053
ONEWEB-0537             
1 56046U 23043A   25322.37902226  .00000111  00000+0  25588-3 0  9991
2 56046  87.9021 270.7511 0001776  73.4866 286.6460 13.16593421131224
ONEWEB-0538             
1 56047U 23043B   25322.82867501  .00000064  00000+0  13302-3 0  9996
2 56047  87.9013 270.6668 0002047  73.0140 287.1215 13.16593152131293
ONEWEB-0546             
1 56048U 23043C   25322.81600552 -.00000033  00000+0 -12017-3 0  9997
2 56048  87.9027 270.6585 0001482  59.6088 300.5189 13.16593092131282
ONEWEB-0547             
1 56049U 23043D   25322.88855913 -.00000055  00000+0 -16453-3 0  9990
2 56049  87.9186 285.9210 0002082  82.2145 277.9225 13.21827793130445
ONEWEB-0548             
1 56050U 23043E   25322.84055082  .00000072  00000+0  15389-3 0  9991
2 56050  87.9009 270.6640 0001701  94.9664 265.1661 13.16596878131289
